STARLINK-32424          
1 61548U 24184S   25235.65096887  .00000484  00000+0  28469-4 0  9997
2 61548  53.1589 214.0054 0001188  95.3947 264.7189 15.30190788 48188
STARLINK-32389          
1 61549U 24184T   25235.63513875  .00003027  00000+0  11432-3 0  9994
2 61549  53.1602 213.9090 0001330  96.9241 263.1911 15.30187741 48187
STARLINK-32476          
1 61550U 24184U   25235.64780237  .00001458  00000+0  61352-4 0  9998
2 61550  53.1587 213.9855 0001116 100.8760 259.2367 15.30191323 48185
STARLINK-32366          
1 61551U 24184V   25235.65730181 -.00000058  00000+0  10176-4 0  9997
2 61551  53.1589 214.0469 0001299  84.0979 276.0169 15.30188245 48184
STARLINK-11356 [DTC]    
1 61574U 24187A   25235.31927517 -.00002942  00000+0 -19458-4 0  9996
2 61574  53.1593 194.1757 0001233 109.8472 250.2679 15.69683074 49626
STARLINK-11376 [DTC]    
1 61575U 24187B   25235.18701338  .00002371  00000+0  24431-4 0  9994
2 61575  53.1609 194.7720 0001187  96.4942 263.6211 15.69700720 49529
STARLINK-11372 [DTC]    
1 61576U 24187C   25235.30944557  .00001387  00000+0  16310-4 0  9994
2 61576  53.1611 194.1120 0001186  94.7445 265.3708 15.69704468 49599
STARLINK-11375 [DTC]    
1 61577U 24187D   25235.87756113 -.00000059  00000+0  43701-5 0  9997
2 61577  53.1596 191.2528 0001006  85.4461 274.6672 15.69711124 49688
STARLINK-11285 [DTC]    
1 61578U 24187E   25235.87265795  .00000166  00000+0  62266-5 0  9994
2 61578  53.1596 191.2200 0001074  96.0358 264.0782 15.69710466 49632
STARLINK-11275 [DTC]    
1 61579U 24187F   25235.61307838 -.00000237  00000+0  29021-5 0  9994
2 61579  53.1594 192.4444 0001362  74.4271 285.6897 15.69706705 49590
STARLINK-11342 [DTC]    
1 61580U 24187G   25235.86284639  .00000018  00000+0  50044-5 0  9991
2 61580  53.1595 191.1530 0001239  90.7790 269.3370 15.69714634 49736
STARLINK-11374 [DTC]    
1 61581U 24187H   25235.85804464 -.00000379  00000+0  17288-5 0  9999
2 61581  53.1595 191.8570 0001074  95.7760 264.3380 15.69707765 49729
STARLINK-11373 [DTC]    
1 61582U 24187J   25235.59846459 -.00000114  00000+0  39196-5 0  9990
2 61582  53.1607 193.0794 0001340  86.3966 273.7205 15.69703679 49636
STARLINK-11368 [DTC]    
1 61583U 24187K   25235.08420340  .00000001  00000+0  48665-5 0  9997
2 61583  53.1577 195.5556 0000949  80.1835 279.9290 15.69707934 49503
STARLINK-11370 [DTC]    
1 61584U 24187L   25235.90699269  .00000010  00000+0  49378-5 0  9999
2 61584  53.1588 191.4430 0001185  82.3248 277.7904 15.69716201 49681
STARLINK-11361 [DTC]    
1 61585U 24187M   25235.26539982  .00000418  00000+0  83137-5 0  9997
2 61585  53.1598 194.5475 0001103  97.0948 263.0195 15.69704914 49583
