[{"OBJECT_NAME":"STARLINK-32424","OBJECT_ID":"2024-184S","EPOCH":"2025-08-23T15:37:23.710368","MEAN_MOTION":15.30190788,"ECCENTRICITY":0.00011881,"INCLINATION":53.1589,"RA_OF_ASC_NODE":214.0054,"ARG_OF_PERICENTER":95.3947,"MEAN_ANOMALY":264.7189,"EPHEMERIS_TYPE":0,"CLASSIFICATION_TYPE":"U","NORAD_CAT_ID":61548,"ELEMENT_SET_NO":999,"REV_AT_EPOCH":4818,"BSTAR":2.8469442e-5,"MEAN_MOTION_DOT":4.84e-6,"MEAN_MOTION_DDOT":0},{"OBJECT_NAME":"STARLINK-32389","OBJECT_ID":"2024-184T","EPOCH":"2025-08-23T15:14:35.988000","MEAN_MOTION":15.30187741,"ECCENTRICITY":0.00013305,"INCLINATION":53.1602,"RA_OF_ASC_NODE":213.909,"ARG_OF_PERICENTER":96.9241,"MEAN_ANOMALY":263.1911,"EPHEMERIS_TYPE":0,"CLASSIFICATION_TYPE":"U","NORAD_CAT_ID":61549,"ELEMENT_SET_NO":999,"REV_AT_EPOCH":4818,"BSTAR":0.0001143166,"MEAN_MOTION_DOT":3.027e-5,"MEAN_MOTION_DDOT":0},{"OBJECT_NAME":"STARLINK-32476","OBJECT_ID":"2024-184U","EPOCH":"2025-08-23T15:32:50.124768","MEAN_MOTION":15.30191323,"ECCENTRICITY":0.00011166,"INCLINATION":53.1587,"RA_OF_ASC_NODE":213.9855,"ARG_OF_PERICENTER":100.876,"MEAN_ANOMALY":259.2367,"EPHEMERIS_TYPE":0,"CLASSIFICATION_TYPE":"U","NORAD_CAT_ID":61550,"ELEMENT_SET_NO":999,"REV_AT_EPOCH":4818,"BSTAR":6.1351766e-5,"MEAN_MOTION_DOT":1.458e-5,"MEAN_MOTION_DDOT":0},{"OBJECT_NAME":"STARLINK-32366","OBJECT_ID":"2024-184V","EPOCH":"2025-08-23T15:46:30.876384","MEAN_MOTION":15.30188245,"ECCENTRICITY":0.00012991,"INCLINATION":53.1589,"RA_OF_ASC_NODE":214.0469,"ARG_OF_PERICENTER":84.0979,"MEAN_ANOMALY":276.0169,"EPHEMERIS_TYPE":0,"CLASSIFICATION_TYPE":"U","NORAD_CAT_ID":61551,"ELEMENT_SET_NO":999,"REV_AT_EPOCH":4818,"BSTAR":1.0175712e-5,"MEAN_MOTION_DOT":-5.8e-7,"MEAN_MOTION_DDOT":0},{"OBJECT_NAME":"STARLINK-11356 [DTC]","OBJECT_ID":"2024-187A","EPOCH":"2025-08-23T07:39:45.374688","MEAN_MOTION":15.69683074,"ECCENTRICITY":0.00012331,"INCLINATION":53.1593,"RA_OF_ASC_NODE":194.1757,"ARG_OF_PERICENTER":109.8472,"MEAN_ANOMALY":250.2679,"EPHEMERIS_TYPE":0,"CLASSIFICATION_TYPE":"U","NORAD_CAT_ID":61574,"ELEMENT_SET_NO":999,"REV_AT_EPOCH":4962,"BSTAR":-1.9458026e-5,"MEAN_MOTION_DOT":-2.942e-5,"MEAN_MOTION_DDOT":0},{"OBJECT_NAME":"STARLINK-11376 [DTC]","OBJECT_ID":"2024-187B","EPOCH":"2025-08-23T04:29:17.956032","MEAN_MOTION":15.6970072,"ECCENTRICITY":0.00011872,"INCLINATION":53.1609,"RA_OF_ASC_NODE":194.772,"ARG_OF_PERICENTER":96.4942,"MEAN_ANOMALY":263.6211,"EPHEMERIS_TYPE":0,"CLASSIFICATION_TYPE":"U","NORAD_CAT_ID":61575,"ELEMENT_SET_NO":999,"REV_AT_EPOCH":4952,"BSTAR":2.4431156e-5,"MEAN_MOTION_DOT":2.371e-5,"MEAN_MOTION_DDOT":0},{"OBJECT_NAME":"STARLINK-11372 [DTC]","OBJECT_ID":"2024-187C","EPOCH":"2025-08-23T07:25:36.097248","MEAN_MOTION":15.69704468,"ECCENTRICITY":0.00011862,"INCLINATION":53.1611,"RA_OF_ASC_NODE":194.112,"ARG_OF_PERICENTER":94.7445,"MEAN_ANOMALY":265.3708,"EPHEMERIS_TYPE":0,"CLASSIFICATION_TYPE":"U","NORAD_CAT_ID":61576,"ELEMENT_SET_NO":999,"REV_AT_EPOCH":4959,"BSTAR":1.6309952e-5,"MEAN_MOTION_DOT":1.387e-5,"MEAN_MOTION_DDOT":0},{"OBJECT_NAME":"STARLINK-11375 [DTC]","OBJECT_ID":"2024-187D","EPOCH":"2025-08-23T21:03:41.281632","MEAN_MOTION":15.69711124,"ECCENTRICITY":0.00010066,"INCLINATION":53.1596,"RA_OF_ASC_NODE":191.2528,"ARG_OF_PERICENTER":85.4461,"MEAN_ANOMALY":274.6672,"EPHEMERIS_TYPE":0,"CLASSIFICATION_TYPE":"U","NORAD_CAT_ID":61577,"ELEMENT_SET_NO":999,"REV_AT_EPOCH":4968,"BSTAR":4.370138e-6,"MEAN_MOTION_DOT":-5.9e-7,"MEAN_MOTION_DDOT":0},{"OBJECT_NAME":"STARLINK-11285 [DTC]","OBJECT_ID":"2024-187E","EPOCH":"2025-08-23T20:56:37.646880","MEAN_MOTION":15.69710466,"ECCENTRICITY":0.0001074,"INCLINATION":53.1596,"RA_OF_ASC_NODE":191.22,"ARG_OF_PERICENTER":96.0358,"MEAN_ANOMALY":264.0782,"EPHEMERIS_TYPE":0,"CLASSIFICATION_TYPE":"U","NORAD_CAT_ID":61578,"ELEMENT_SET_NO":999,"REV_AT_EPOCH":4963,"BSTAR":6.226583e-6,"MEAN_MOTION_DOT":1.66e-6,"MEAN_MOTION_DDOT":0},{"OBJECT_NAME":"STARLINK-11275 [DTC]","OBJECT_ID":"2024-187F","EPOCH":"2025-08-23T14:42:49.972032","MEAN_MOTION":15.69706705,"ECCENTRICITY":0.00013627,"INCLINATION":53.1594,"RA_OF_ASC_NODE":192.4444,"ARG_OF_PERICENTER":74.4271,"MEAN_ANOMALY":285.6897,"EPHEMERIS_TYPE":0,"CLASSIFICATION_TYPE":"U","NORAD_CAT_ID":61579,"ELEMENT_SET_NO":999,"REV_AT_EPOCH":4959,"BSTAR":2.902058e-6,"MEAN_MOTION_DOT":-2.37e-6,"MEAN_MOTION_DDOT":0},{"OBJECT_NAME":"STARLINK-11342 [DTC]","OBJECT_ID":"2024-187G","EPOCH":"2025-08-23T20:42:29.928096","MEAN_MOTION":15.69714634,"ECCENTRICITY":0.00012397,"INCLINATION":53.1595,"RA_OF_ASC_NODE":191.153,"ARG_OF_PERICENTER":90.779,"MEAN_ANOMALY":269.337,"EPHEMERIS_TYPE":0,"CLASSIFICATION_TYPE":"U","NORAD_CAT_ID":61580,"ELEMENT_SET_NO":999,"REV_AT_EPOCH":4973,"BSTAR":5.00442e-6,"MEAN_MOTION_DOT":1.8e-7,"MEAN_MOTION_DDOT":0},{"OBJECT_NAME":"STARLINK-11374 [DTC]","OBJECT_ID":"2024-187H","EPOCH":"2025-08-23T20:35:35.056896","MEAN_MOTION":15.69707765,"ECCENTRICITY":0.00010742,"INCLINATION":53.1595,"RA_OF_ASC_NODE":191.857,"ARG_OF_PERICENTER":95.776,"MEAN_ANOMALY":264.338,"EPHEMERIS_TYPE":0,"CLASSIFICATION_TYPE":"U","NORAD_CAT_ID":61581,"ELEMENT_SET_NO":999,"REV_AT_EPOCH":4972,"BSTAR":1.72876e-6,"MEAN_MOTION_DOT":-3.79e-6,"MEAN_MOTION_DDOT":0},{"OBJECT_NAME":"STARLINK-11373 [DTC]","OBJECT_ID":"2024-187J","EPOCH":"2025-08-23T14:21:47.340576","MEAN_MOTION":15.69703679,"ECCENTRICITY":0.00013402,"INCLINATION":53.1607,"RA_OF_ASC_NODE":193.0794,"ARG_OF_PERICENTER":86.3966,"MEAN_ANOMALY":273.7205,"EPHEMERIS_TYPE":0,"CLASSIFICATION_TYPE":"U","NORAD_CAT_ID":61582,"ELEMENT_SET_NO":999,"REV_AT_EPOCH":4963,"BSTAR":3.919602e-6,"MEAN_MOTION_DOT":-1.14e-6,"MEAN_MOTION_DDOT":0},{"OBJECT_NAME":"STARLINK-11368 [DTC]","OBJECT_ID":"2024-187K","EPOCH":"2025-08-23T02:01:15.173760","MEAN_MOTION":15.69707934,"ECCENTRICITY":9.491e-5,"INCLINATION":53.1577,"RA_OF_ASC_NODE":195.5556,"ARG_OF_PERICENTER":80.1835,"MEAN_ANOMALY":279.929,"EPHEMERIS_TYPE":0,"CLASSIFICATION_TYPE":"U","NORAD_CAT_ID":61583,"ELEMENT_SET_NO":999,"REV_AT_EPOCH":4950,"BSTAR":4.866527e-6,"MEAN_MOTION_DOT":1.0e-8,"MEAN_MOTION_DDOT":0},{"OBJECT_NAME":"STARLINK-11370 [DTC]","OBJECT_ID":"2024-187L","EPOCH":"2025-08-23T21:46:04.168416","MEAN_MOTION":15.69716201,"ECCENTRICITY":0.00011852,"INCLINATION":53.1588,"RA_OF_ASC_NODE":191.443,"ARG_OF_PERICENTER":82.3248,"MEAN_ANOMALY":277.7904,"EPHEMERIS_TYPE":0,"CLASSIFICATION_TYPE":"U","NORAD_CAT_ID":61584,"ELEMENT_SET_NO":999,"REV_AT_EPOCH":4968,"BSTAR":4.937766e-6,"MEAN_MOTION_DOT":1.0e-7,"MEAN_MOTION_DDOT":0},{"OBJECT_NAME":"STARLINK-11361 [DTC]","OBJECT_ID":"2024-187M","EPOCH":"2025-08-23T06:22:10.544448","MEAN_MOTION":15.69704914,"ECCENTRICITY":0.00011039,"INCLINATION":53.1598,"RA_OF_ASC_NODE":194.5475,"ARG_OF_PERICENTER":97.0948,"MEAN_ANOMALY":263.0195,"EPHEMERIS_TYPE":0,"CLASSIFICATION_TYPE":"U","NORAD_CAT_ID":61585,"ELEMENT_SET_NO":999,"REV_AT_EPOCH":4958,"BSTAR":8.313712e-6,"MEAN_MOTION_DOT":4.18e-6,"MEAN_MOTION_DDOT":0}]
